*******************************************************************************
JPL/HORIZONS                236 Honoria (A884 HA)          2020-Jun-22 08:42:53
Rec #:     236 (+COV) Soln.date: 2020-May-20_01:01:43   # obs: 2755 (1884-2020)
 
IAU76/J2000 helio. ecliptic osc. elements (au, days, deg., period=Julian yrs):
 
  EPOCH=  2455873.5 ! 2011-Nov-08.00 (TDB)         Residual RMS= .34758
   EC= .1873078610463549   QR= 2.275732165315262   TP= 2456200.6504384847
   OM= 186.0566602881214   W=  174.75853811713     IN= 7.683010236262222
   A= 2.800238929645986    MA= 291.1888292228757   ADIST= 3.324745693976709
   PER= 4.68598            N= .210334943           ANGMOM= .028276372
   DAN= 3.32154            DDN= 2.27723            L= .861993
   B= .699783              MOID= 1.27242005        TP= 2012-Sep-30.1504384847
 
Asteroid physical parameters (km, seconds, rotational period in hours):
   GM= n.a.                RAD= 38.854             ROTPER= 12.336
   H= 8.1                  G= -.020                B-V= .852
                           ALBEDO= .156            STYP= L
 
ASTEROID comments: 
1: soln ref.= JPL#41, OCC=0
2: source=ORB
*******************************************************************************
 
 
*******************************************************************************
Ephemeris / WWW_USER Mon Jun 22 08:42:53 2020 Pasadena, USA      / Horizons
*******************************************************************************
Target body name: 236 Honoria (A884 HA)           {source: JPL#41}
Center body name: Solar System Barycenter (0)     {source: DE431}
Center-site name: BODY CENTER
*******************************************************************************
Start time      : A.D. 1969-Jun-28 00:00:00.0000 TDB
Stop  time      : A.D. 2071-May-04 00:00:00.0000 TDB
Step-size       : 7200 minutes
*******************************************************************************
Center geodetic : 0.00000000,0.00000000,0.0000000 {E-lon(deg),Lat(deg),Alt(km)}
Center cylindric: 0.00000000,0.00000000,0.0000000 {E-lon(deg),Dxy(km),Dz(km)}
Center radii    : (undefined)                                                  
Small perturbers: Yes                             {source: SB431-N16}
Output units    : AU-D
Output type     : GEOMETRIC cartesian states
Output format   : 2 (position and velocity)
Reference frame : Ecliptic of J2000.0
*******************************************************************************
Initial IAU76/J2000 heliocentric ecliptic osculating elements (au, days, deg.):
  EPOCH=  2455873.5 ! 2011-Nov-08.00 (TDB)         Residual RMS= .34758        
   EC= .1873078610463549   QR= 2.275732165315262   TP= 2456200.6504384847      
   OM= 186.0566602881214   W=  174.75853811713     IN= 7.683010236262222       
  Equivalent ICRF heliocentric equatorial cartesian coordinates (au, au/d):
   X= 2.850541371620980E-02  Y=-2.601225143332016E+00  Z=-7.355888418416779E-01
  VX= 1.043733669586098E-02 VY= 1.952063390117378E-03 VZ= 7.053546605066817E-04
Asteroid physical parameters (km, seconds, rotational period in hours):        
   GM= n.a.                RAD= 38.854             ROTPER= 12.336              
   H= 8.1                  G= -.020                B-V= .852                   
                           ALBEDO= .156            STYP= L                     
*******************************************************************************
            JDTDB,            Calendar Date (TDB),        delta-T,                      X,                      Y,                      Z,                     VX,                     VY,                     VZ,
******************************************************************************************************************************************************************************************************************
$$SOE
2446420.500000000, A.D. 1985-Dec-21 00:00:00.0000,      55.183597, -1.633924955027952E+00,  2.508571515620107E+00, -3.594592899416296E-01, -8.797974234697645E-03, -3.708053800104614E-03,  3.621722034156603E-04,
2446425.500000000, A.D. 1985-Dec-26 00:00:00.0000,      55.183740, -1.677691584464070E+00,  2.489692921042983E+00, -3.575997732334696E-01, -8.708404490999353E-03, -3.843030214312257E-03,  3.815912826161203E-04,
2446430.500000000, A.D. 1985-Dec-31 00:00:00.0000,      55.183884, -1.721006308771879E+00,  2.470144748713833E+00, -3.556438092943611E-01, -8.617220009426338E-03, -3.975885506291052E-03,  4.007510577150922E-04,
2446435.500000000, A.D. 1986-Jan-05 00:00:00.0000,      55.184030, -1.763861170701865E+00,  2.449937594677359E+00, -3.535926951367310E-01, -8.524467176398903E-03, -4.106623598299907E-03,  4.196513475928667E-04,
2446440.500000000, A.D. 1986-Jan-10 00:00:00.0000,      55.184177, -1.806248442110402E+00,  2.429082033968193E+00, -3.514477284490103E-01, -8.430191251193871E-03, -4.235248964885855E-03,  4.382920619523858E-04,
2446445.500000000, A.D. 1986-Jan-15 00:00:00.0000,      55.184324, -1.848160618374467E+00,  2.407588617956041E+00, -3.492102071564930E-01, -8.334436386174378E-03, -4.361766590597588E-03,  4.566731953803811E-04,
2446450.500000000, A.D. 1986-Jan-20 00:00:00.0000,      55.184466, -1.889590412908329E+00,  2.385467871897146E+00, -3.468814290111575E-01, -8.237245647346136E-03, -4.486181929726159E-03,  4.747948216985944E-04,
2446455.500000000, A.D. 1986-Jan-25 00:00:00.0000,      55.184604, -1.930530751783739E+00,  2.362730292682116E+00, -3.444626912090320E-01, -8.138661035188153E-03, -4.608500868013459E-03,  4.926570885926028E-04,
2446460.500000000, A.D. 1986-Jan-30 00:00:00.0000,      55.184736, -1.970974768454872E+00,  2.339386346770419E+00, -3.419552900337518E-01, -8.038723505719929E-03, -4.728729686266134E-03,  5.102602125034284E-04,
2446465.500000000, A.D. 1986-Feb-04 00:00:00.0000,      55.184864, -2.010915798589134E+00,  2.315446468302172E+00, -3.393605205250371E-01, -7.937472991777704E-03, -4.846875025806600E-03,  5.276044737652544E-04,
2446470.500000000, A.D. 1986-Feb-09 00:00:00.0000,      55.184987, -2.050347375004841E+00,  2.290921057378267E+00, -3.366796761709065E-01, -7.834948424480959E-03, -4.962943855678708E-03,  5.446902119694545E-04,
2446475.500000000, A.D. 1986-Feb-14 00:00:00.0000,      55.185102, -2.089263222716650E+00,  2.265820478500265E+00, -3.339140486225477E-01, -7.731187754863965E-03, -5.076943441518355E-03,  5.615178215361907E-04,
2446480.500000000, A.D. 1986-Feb-19 00:00:00.0000,      55.185208, -2.127657254089506E+00,  2.240155059161943E+00, -3.310649274308380E-01, -7.626227975648513E-03, -5.188881316002942E-03,  5.780877474773363E-04,
2446485.500000000, A.D. 1986-Feb-24 00:00:00.0000,      55.185303, -2.165523564101824E+00,  2.213935088584860E+00, -3.281335998036254E-01, -7.520105143171443E-03, -5.298765250782730E-03,  5.944004813266323E-04,
2446490.500000000, A.D. 1986-Mar-01 00:00:00.0000,      55.185388, -2.202856425718843E+00,  2.187170816590896E+00, -3.251213503830400E-01, -7.412854399540452E-03, -5.406603229705630E-03,  6.104565571833353E-04,
2446495.500000000, A.D. 1986-Mar-06 00:00:00.0000,      55.185463, -2.239650285377277E+00,  2.159872452606102E+00, -3.220294610424332E-01, -7.304509994946945E-03, -5.512403423030028E-03,  6.262565478176017E-04,
2446500.500000000, A.D. 1986-Mar-11 00:00:00.0000,      55.185529, -2.275899758580956E+00,  2.132050164791158E+00, -3.188592107024844E-01, -7.195105309655074E-03, -5.616174162619315E-03,  6.418010609287420E-04,
2446505.500000000, A.D. 1986-Mar-16 00:00:00.0000,      55.185584, -2.311599625604804E+00,  2.103714079292369E+00, -3.156118751652512E-01, -7.084672875370870E-03, -5.717923918612893E-03,  6.570907357205561E-04,
2446510.500000000, A.D. 1986-Mar-21 00:00:00.0000,      55.185625, -2.346744827305104E+00,  2.074874279605248E+00, -3.122887269646754E-01, -6.973244396487419E-03, -5.817661277666834E-03,  6.721262397142049E-04,
2446515.500000000, A.D. 1986-Mar-26 00:00:00.0000,      55.185652, -2.381330461036426E+00,  2.045540806043999E+00, -3.088910352327975E-01, -6.860850771502104E-03, -5.915394922270773E-03,  6.869082656327574E-04,
2446520.500000000, A.D. 1986-Mar-31 00:00:00.0000,      55.185668, -2.415351776675631E+00,  2.015723655312345E+00, -3.054200655814122E-01, -6.747522114372510E-03, -6.011133610888065E-03,  7.014375283532444E-04,
2446525.500000000, A.D. 1986-Apr-05 00:00:00.0000,      55.185672, -2.448804172751982E+00,  1.985432780171449E+00, -3.018770799986492E-01, -6.633287775584833E-03, -6.104886159004574E-03,  7.157147619920139E-04,
2446530.500000000, A.D. 1986-Apr-10 00:00:00.0000,      55.185666, -2.481683192681777E+00,  1.954678089200107E+00, -2.982633367597349E-01, -6.518176362901550E-03, -6.196661421169562E-03,  7.297407171471792E-04,
2446535.500000000, A.D. 1986-Apr-15 00:00:00.0000,      55.185646, -2.513984521106009E+00,  1.923469446642272E+00, -2.945800903511657E-01, -6.402215761824872E-03, -6.286468274021600E-03,  7.435161582886316E-04,
2446540.500000000, A.D. 1986-Apr-20 00:00:00.0000,      55.185614, -2.545703980329681E+00,  1.891816672337096E+00, -2.908285914076020E-01, -6.285433155806385E-03, -6.374315600243099E-03,  7.570418612784184E-04,
2446545.500000000, A.D. 1986-Apr-25 00:00:00.0000,      55.185568, -2.576837526861578E+00,  1.859729541727008E+00, -2.870100866608586E-01, -6.167855046213527E-03, -6.460212273376833E-03,  7.703186110072732E-04,
2446550.500000000, A.D. 1986-Apr-30 00:00:00.0000,      55.185511, -2.607381248053239E+00,  1.827217785939712E+00, -2.831258189004487E-01, -6.049507272044506E-03, -6.544167143437287E-03,  7.833471991378209E-04,
2446555.500000000, A.D. 1986-May-05 00:00:00.0000,      55.185445, -2.637331358835830E+00,  1.794291091940250E+00, -2.791770269451539E-01, -5.930415029367856E-03, -6.626189023254707E-03,  7.961284219492899E-04,
